[{"OBJECT_NAME":"CUTE-1.7+APD II (CO-65)","OBJECT_ID":"2008-021C","EPOCH":"2026-03-07T14:10:36.621696","MEAN_MOTION":15.08337924,"ECCENTRICITY":0.00099372,"INCLINATION":97.821,"RA_OF_ASC_NODE":46.0246,"ARG_OF_PERICENTER":26.7081,"MEAN_ANOMALY":333.4656,"EPHEMERIS_TYPE":0,"CLASSIFICATION_TYPE":"U","NORAD_CAT_ID":32785,"ELEMENT_SET_NO":999,"REV_AT_EPOCH":96987,"BSTAR":0.0006149022,"MEAN_MOTION_DOT":9.498e-5,"MEAN_MOTION_DDOT":0},{"OBJECT_NAME":"SEEDS II (CO-66)","OBJECT_ID":"2008-021J","EPOCH":"2026-03-07T11:59:35.865888","MEAN_MOTION":15.28968125,"ECCENTRICITY":0.00017632,"INCLINATION":97.7523,"RA_OF_ASC_NODE":59.8387,"ARG_OF_PERICENTER":7.0409,"MEAN_ANOMALY":353.0854,"EPHEMERIS_TYPE":0,"CLASSIFICATION_TYPE":"U","NORAD_CAT_ID":32791,"ELEMENT_SET_NO":999,"REV_AT_EPOCH":97173,"BSTAR":0.001079585,"MEAN_MOTION_DOT":0.00030386,"MEAN_MOTION_DDOT":0},{"OBJECT_NAME":"YUBILEINY (RS30)","OBJECT_ID":"2008-025A","EPOCH":"2026-03-07T12:50:18.256128","MEAN_MOTION":12.43175979,"ECCENTRICITY":0.00194592,"INCLINATION":82.4992,"RA_OF_ASC_NODE":58.663,"ARG_OF_PERICENTER":169.9134,"MEAN_ANOMALY":190.234,"EPHEMERIS_TYPE":0,"CLASSIFICATION_TYPE":"U","NORAD_CAT_ID":32953,"ELEMENT_SET_NO":999,"REV_AT_EPOCH":80706,"BSTAR":0.00015329526,"MEAN_MOTION_DOT":3.1e-7,"MEAN_MOTION_DDOT":0},{"OBJECT_NAME":"KKS-1 (KISEKI)","OBJECT_ID":"2009-002H","EPOCH":"2026-03-07T12:11:26.833344","MEAN_MOTION":14.82819953,"ECCENTRICITY":0.00064238,"INCLINATION":98.1186,"RA_OF_ASC_NODE":347.3703,"ARG_OF_PERICENTER":259.4196,"MEAN_ANOMALY":100.6294,"EPHEMERIS_TYPE":0,"CLASSIFICATION_TYPE":"U","NORAD_CAT_ID":33499,"ELEMENT_SET_NO":999,"REV_AT_EPOCH":92112,"BSTAR":0.00031440561,"MEAN_MOTION_DOT":2.489e-5,"MEAN_MOTION_DDOT":0},{"OBJECT_NAME":"SWISSCUBE","OBJECT_ID":"2009-051B","EPOCH":"2026-03-07T15:07:08.083488","MEAN_MOTION":14.62253623,"ECCENTRICITY":0.00069347,"INCLINATION":98.4098,"RA_OF_ASC_NODE":332.7362,"ARG_OF_PERICENTER":158.7372,"MEAN_ANOMALY":201.4118,"EPHEMERIS_TYPE":0,"CLASSIFICATION_TYPE":"U","NORAD_CAT_ID":35932,"ELEMENT_SET_NO":999,"REV_AT_EPOCH":87431,"BSTAR":0.00036923019,"MEAN_MOTION_DOT":1.813e-5,"MEAN_MOTION_DDOT":0},{"OBJECT_NAME":"BEESAT-1","OBJECT_ID":"2009-051C","EPOCH":"2026-03-07T07:31:54.204384","MEAN_MOTION":14.61527288,"ECCENTRICITY":0.000515,"INCLINATION":98.403,"RA_OF_ASC_NODE":332.2595,"ARG_OF_PERICENTER":170.589,"MEAN_ANOMALY":189.5407,"EPHEMERIS_TYPE":0,"CLASSIFICATION_TYPE":"U","NORAD_CAT_ID":35933,"ELEMENT_SET_NO":999,"REV_AT_EPOCH":87430,"BSTAR":0.00031893,"MEAN_MOTION_DOT":1.534e-5,"MEAN_MOTION_DDOT":0},{"OBJECT_NAME":"ITUPSAT1","OBJECT_ID":"2009-051E","EPOCH":"2026-03-07T06:49:42.363840","MEAN_MOTION":14.60262677,"ECCENTRICITY":0.00071,"INCLINATION":98.4118,"RA_OF_ASC_NODE":331.5269,"ARG_OF_PERICENTER":185.7146,"MEAN_ANOMALY":174.3974,"EPHEMERIS_TYPE":0,"CLASSIFICATION_TYPE":"U","NORAD_CAT_ID":35935,"ELEMENT_SET_NO":999,"REV_AT_EPOCH":87386,"BSTAR":0.00030291,"MEAN_MOTION_DOT":1.414e-5,"MEAN_MOTION_DDOT":0},{"OBJECT_NAME":"XIWANG-1 (HOPE-1)","OBJECT_ID":"2009-072B","EPOCH":"2026-03-07T15:11:31.930944","MEAN_MOTION":13.16434114,"ECCENTRICITY":0.00080522,"INCLINATION":100.3918,"RA_OF_ASC_NODE":22.1413,"ARG_OF_PERICENTER":103.7682,"MEAN_ANOMALY":256.4328,"EPHEMERIS_TYPE":0,"CLASSIFICATION_TYPE":"U","NORAD_CAT_ID":36122,"ELEMENT_SET_NO":999,"REV_AT_EPOCH":77964,"BSTAR":-0.00053461891,"MEAN_MOTION_DOT":-2.48e-6,"MEAN_MOTION_DDOT":0},{"OBJECT_NAME":"O/OREOS (USA 219)","OBJECT_ID":"2010-062C","EPOCH":"2026-03-07T09:17:18.380256","MEAN_MOTION":14.93266454,"ECCENTRICITY":0.00169091,"INCLINATION":71.9714,"RA_OF_ASC_NODE":310.8551,"ARG_OF_PERICENTER":260.5654,"MEAN_ANOMALY":99.3605,"EPHEMERIS_TYPE":0,"CLASSIFICATION_TYPE":"U","NORAD_CAT_ID":37224,"ELEMENT_SET_NO":999,"REV_AT_EPOCH":10144,"BSTAR":0.00032903387,"MEAN_MOTION_DOT":3.393e-5,"MEAN_MOTION_DDOT":0},{"OBJECT_NAME":"JUGNU","OBJECT_ID":"2011-058B","EPOCH":"2026-03-07T16:06:20.701152","MEAN_MOTION":14.13739892,"ECCENTRICITY":0.00187552,"INCLINATION":19.9593,"RA_OF_ASC_NODE":205.1608,"ARG_OF_PERICENTER":35.3584,"MEAN_ANOMALY":78.202,"EPHEMERIS_TYPE":0,"CLASSIFICATION_TYPE":"U","NORAD_CAT_ID":37839,"ELEMENT_SET_NO":999,"REV_AT_EPOCH":74464,"BSTAR":0.00015654004,"MEAN_MOTION_DOT":5.67e-6,"MEAN_MOTION_DDOT":0},{"OBJECT_NAME":"SRMSAT","OBJECT_ID":"2011-058D","EPOCH":"2026-03-06T20:41:54.525696","MEAN_MOTION":14.11546449,"ECCENTRICITY":0.00118409,"INCLINATION":19.9729,"RA_OF_ASC_NODE":318.8168,"ARG_OF_PERICENTER":158.0266,"MEAN_ANOMALY":271.4447,"EPHEMERIS_TYPE":0,"CLASSIFICATION_TYPE":"U","NORAD_CAT_ID":37841,"ELEMENT_SET_NO":999,"REV_AT_EPOCH":74334,"BSTAR":0.00013113679,"MEAN_MOTION_DOT":5.07e-6,"MEAN_MOTION_DDOT":0},{"OBJECT_NAME":"STRAND-1","OBJECT_ID":"2013-009E","EPOCH":"2026-03-07T11:24:52.635744","MEAN_MOTION":14.3709286,"ECCENTRICITY":0.00088834,"INCLINATION":98.3885,"RA_OF_ASC_NODE":249.2224,"ARG_OF_PERICENTER":168.1704,"MEAN_ANOMALY":191.9693,"EPHEMERIS_TYPE":0,"CLASSIFICATION_TYPE":"U","NORAD_CAT_ID":39090,"ELEMENT_SET_NO":999,"REV_AT_EPOCH":68245,"BSTAR":0.00019692931,"MEAN_MOTION_DOT":5.42e-6,"MEAN_MOTION_DDOT":0},{"OBJECT_NAME":"ZACUBE-1 (TSHEPISOSAT)","OBJECT_ID":"2013-066B","EPOCH":"2026-03-07T03:05:46.622976","MEAN_MOTION":15.00291692,"ECCENTRICITY":0.00421377,"INCLINATION":97.8183,"RA_OF_ASC_NODE":27.9406,"ARG_OF_PERICENTER":228.583,"MEAN_ANOMALY":131.1769,"EPHEMERIS_TYPE":0,"CLASSIFICATION_TYPE":"U","NORAD_CAT_ID":39417,"ELEMENT_SET_NO":999,"REV_AT_EPOCH":66542,"BSTAR":0.00043751208,"MEAN_MOTION_DOT":5.523e-5,"MEAN_MOTION_DDOT":0},{"OBJECT_NAME":"GOMX-1","OBJECT_ID":"2013-066Q","EPOCH":"2026-03-07T12:13:06.642624","MEAN_MOTION":14.69087234,"ECCENTRICITY":0.01303696,"INCLINATION":97.6567,"RA_OF_ASC_NODE":273.3503,"ARG_OF_PERICENTER":44.4616,"MEAN_ANOMALY":316.6967,"EPHEMERIS_TYPE":0,"CLASSIFICATION_TYPE":"U","NORAD_CAT_ID":39430,"ELEMENT_SET_NO":999,"REV_AT_EPOCH":65498,"BSTAR":0.00032397099,"MEAN_MOTION_DOT":2.116e-5,"MEAN_MOTION_DDOT":0},{"OBJECT_NAME":"CUBEBUG-2 (LO-74)","OBJECT_ID":"2013-066AA","EPOCH":"2026-03-07T10:03:09.967104","MEAN_MOTION":14.92924451,"ECCENTRICITY":0.00589898,"INCLINATION":97.8819,"RA_OF_ASC_NODE":15.0884,"ARG_OF_PERICENTER":6.6765,"MEAN_ANOMALY":353.5227,"EPHEMERIS_TYPE":0,"CLASSIFICATION_TYPE":"U","NORAD_CAT_ID":39440,"ELEMENT_SET_NO":999,"REV_AT_EPOCH":66180,"BSTAR":0.00077492399,"MEAN_MOTION_DOT":8.261e-5,"MEAN_MOTION_DDOT":0},{"OBJECT_NAME":"FUNCUBE-1 (AO-73)","OBJECT_ID":"2013-066AE","EPOCH":"2026-03-07T09:14:08.326176","MEAN_MOTION":15.07859994,"ECCENTRICITY":0.00370244,"INCLINATION":97.8193,"RA_OF_ASC_NODE":35.8839,"ARG_OF_PERICENTER":187.1122,"MEAN_ANOMALY":172.9585,"EPHEMERIS_TYPE":0,"CLASSIFICATION_TYPE":"U","NORAD_CAT_ID":39444,"ELEMENT_SET_NO":999,"REV_AT_EPOCH":66431,"BSTAR":0.00086966278,"MEAN_MOTION_DOT":0.00013488,"MEAN_MOTION_DDOT":0}]
