CUTE-1.7+APD II (CO-65) 
1 32785U 08021C   26066.59070164  .00009498  00000+0  61490-3 0  9990
2 32785  97.8210  46.0246 0009937  26.7081 333.4656 15.08337924969879
SEEDS II (CO-66)        
1 32791U 08021J   26066.49972067  .00030386  00000+0  10796-2 0  9991
2 32791  97.7523  59.8387 0001763   7.0409 353.0854 15.28968125971736
YUBILEINY (RS30)        
1 32953U 08025A   26066.53493352  .00000031  00000+0  15330-3 0  9999
2 32953  82.4992  58.6630 0019459 169.9134 190.2340 12.43175979807065
KKS-1 (KISEKI)          
1 33499U 09002H   26066.50794946  .00002489  00000+0  31441-3 0  9991
2 33499  98.1186 347.3703 0006423 259.4196 100.6294 14.82819953921128
SWISSCUBE               
1 35932U 09051B   26066.62995467  .00001813  00000+0  36923-3 0  9993
2 35932  98.4098 332.7362 0006934 158.7372 201.4118 14.62253623874317
BEESAT-1                
1 35933U 09051C   26066.31382181  .00001534  00000+0  31893-3 0  9994
2 35933  98.4030 332.2595 0005150 170.5890 189.5407 14.61527288874309
ITUPSAT1                
1 35935U 09051E   26066.28451810  .00001414  00000+0  30291-3 0  9996
2 35935  98.4118 331.5269 0007100 185.7146 174.3974 14.60262677873865
XIWANG-1 (HOPE-1)       
1 36122U 09072B   26066.63300846 -.00000248  00000+0 -53462-3 0  9990
2 36122 100.3918  22.1413 0008052 103.7682 256.4328 13.16434114779644
O/OREOS (USA 219)       
1 37224U 10062C   26066.38701829  .00003393  00000+0  32903-3 0  9992
2 37224  71.9714 310.8551 0016909 260.5654  99.3605 14.93266454101441
JUGNU                   
1 37839U 11058B   26066.67107293  .00000567  00000+0  15654-3 0  9991
2 37839  19.9593 205.1608 0018755  35.3584  78.2020 14.13739892744645
SRMSAT                  
1 37841U 11058D   26065.86243664  .00000507  00000+0  13114-3 0  9990
2 37841  19.9729 318.8168 0011840 158.0266 271.4447 14.11546449743348
STRAND-1                
1 39090U 13009E   26066.47560921  .00000542  00000+0  19693-3 0  9999
2 39090  98.3885 249.2224 0008883 168.1704 191.9693 14.37092860682456
ZACUBE-1 (TSHEPISOSAT)  
1 39417U 13066B   26066.12901184  .00005523  00000+0  43751-3 0  9993
2 39417  97.8183  27.9406 0042137 228.5830 131.1769 15.00291692665421
GOMX-1                  
1 39430U 13066Q   26066.50910466  .00002116  00000+0  32397-3 0  9992
2 39430  97.6567 273.3503 0130369  44.4616 316.6967 14.69087234654985
CUBEBUG-2 (LO-74)       
1 39440U 13066AA  26066.41886536  .00008261  00000+0  77492-3 0  9995
2 39440  97.8819  15.0884 0058989   6.6765 353.5227 14.92924451661808
FUNCUBE-1 (AO-73)       
1 39444U 13066AE  26066.38481859  .00013488  00000+0  86966-3 0  9997
2 39444  97.8193  35.8839 0037024 187.1122 172.9585 15.07859994664311
